STARLINK-1344
1 25559C 20025AE  21325.10572039 -.00025999  00000-0 -17421-2 0  3253
2 25559  53.0534 292.7552 0001712  63.1924  41.7585 15.06420696    18
